NORAD_CAT_ID,OBJECT_NAME,OBJECT_TYPE,EPOCH,MEAN_MOTION,ECCENTRICITY,INCLINATION,RA_OF_ASC_NODE,ARG_OF_PERICENTER,MEAN_ANOMALY,BSTAR,MEAN_MOTION_DOT,MEAN_MOTION_DDOT,TLE_LINE0,TLE_LINE1,TLE_LINE2,SEMIMAJOR_AXIS,PERIOD,APOGEE,PERIGEE,DECAYED
52643.0,STARLINK-3963,PAYLOAD,2024-03-13 20:31:20,15.08830268,8.32e-05,53.2156,277.4897,82.5292,277.5794,-1.5328e-05,-5.32e-06,0.0,0 STARLINK-3963,1 52643U 22052AX  24073.85510209 -.00000532  00000-0 -15328-4 0  9992,2 52643  53.2156 277.4897 0000832  82.5292 277.5794 15.08830268101935,6917.91,95.438,540.351,539.2,0.0
52643.0,STARLINK-3963,PAYLOAD,2024-03-13 22:06:43,15.08832756,0.0001419,53.2125,277.1906,88.9727,271.1428,-8.7587e-07,-3.02e-06,0.0,0 STARLINK-3963,1 52643U 22052AX  24073.92134032 -.00000302  00000-0 -87587-6 0  9999,2 52643  53.2125 277.1906 0001419  88.9727 271.1428 15.08832756101561,6917.903,95.438,540.749,538.786,0.0
52643.0,STARLINK-3963,PAYLOAD,2024-03-14 06:03:39,15.08835058,4.74e-05,53.2191,275.7043,14.9996,345.101,0.00011958,1.616e-05,0.0,0 STARLINK-3963,1 52643U 22052AX  24074.25253725  .00001616  00000-0  11958-3 0  9990,2 52643  53.2191 275.7043 0000474  14.9996 345.1010 15.08835058101991,6917.895,95.438,540.088,539.433,0.0
52643.0,STARLINK-3963,PAYLOAD,2024-03-14 21:57:30,15.08849791,0.0001002,53.2182,272.7331,89.6355,270.4752,-0.00018443,-3.223e-05,0.0,0 STARLINK-3963,1 52643U 22052AX  24074.91493960 -.00003223  00000-0 -18443-3 0  9994,2 52643  53.2182 272.7331 0001002  89.6355 270.4752 15.08849791101716,6917.85,95.437,540.409,539.022,0.0
52643.0,STARLINK-3963,PAYLOAD,2024-03-15 21:48:18,15.08833943,0.000131,53.219,268.2696,74.0342,286.0794,7.0657e-05,8.37e-06,0.0,0 STARLINK-3963,1 52643U 22052AX  24075.90854499  .00000837  00000-0  70657-4 0  9994,2 52643  53.2190 268.2696 0001310  74.0342 286.0794 15.08833943101862,6917.899,95.438,540.67,538.858,0.0
52643.0,STARLINK-3963,PAYLOAD,2024-03-15 23:23:41,15.08820254,0.0001264,53.2169,267.9728,82.2697,277.8438,0.00027174,4.037e-05,0.0,0 STARLINK-3963,1 52643U 22052AX  24075.97478785  .00004037  00000-0  27174-3 0  9992,2 52643  53.2169 267.9728 0001264  82.2697 277.8438 15.08820254102250,6917.941,95.439,540.68,538.931,0.0
52643.0,STARLINK-3963,PAYLOAD,2024-03-16 12:06:46,15.08816341,0.0001152,53.216,265.5934,94.3441,265.7683,0.00032003,4.806e-05,0.0,0 STARLINK-3963,1 52643U 22052AX  24076.50470833  .00004806  00000-0  32003-3 0  9999,2 52643  53.2160 265.5934 0001152  94.3441 265.7683 15.08816341101957,6917.953,95.439,540.615,539.021,0.0
52643.0,STARLINK-3963,PAYLOAD,2024-03-16 20:03:41,15.08840718,0.0001256,53.2163,264.1068,93.4921,266.6215,7.2863e-05,8.72e-06,0.0,0 STARLINK-3963,1 52643U 22052AX  24076.83590136  .00000872  00000-0  72863-4 0  9992,2 52643  53.2163 264.1068 0001256  93.4921 266.6215 15.08840718102385,6917.878,95.438,540.612,538.874,0.0
52643.0,STARLINK-3963,PAYLOAD,2024-03-17 11:57:30,15.08865005,0.0001139,53.2157,261.1333,86.9556,273.1567,0.00026269,3.898e-05,0.0,0 STARLINK-3963,1 52643U 22052AX  24077.49827317  .00003898  00000-0  26269-3 0  9998,2 52643  53.2157 261.1333 0001139  86.9556 273.1567 15.08865005102481,6917.804,95.436,540.457,538.881,0.0
52643.0,STARLINK-3963,PAYLOAD,2024-03-17 18:19:05,15.08835381,0.0001288,53.2162,259.9437,113.2173,246.8955,-3.0905e-05,-7.8e-06,0.0,0 STARLINK-3963,1 52643U 22052AX  24077.76325537 -.00000780  00000-0 -30905-4 0  9997,2 52643  53.2162 259.9437 0001288 113.2173 246.8955 15.08835381102528,6917.895,95.438,540.651,538.868,0.0
52643.0,STARLINK-3963,PAYLOAD,2024-03-17 21:29:51,15.08834666,0.0001237,53.2162,259.349,95.8749,264.2384,-3.6297e-05,-8.65e-06,0.0,0 STARLINK-3963,1 52643U 22052AX  24077.89573690 -.00000865  00000-0 -36297-4 0  9990,2 52643  53.2162 259.3490 0001237  95.8749 264.2384 15.08834666102164,6917.897,95.438,540.617,538.906,0.0
52643.0,STARLINK-3963,PAYLOAD,2024-03-18 11:48:20,15.08831308,0.0001369,53.2167,256.6734,98.4552,261.6595,-5.9053e-05,-1.227e-05,0.0,0 STARLINK-3963,1 52643U 22052AX  24078.49190101 -.00001227  00000-0 -59053-4 0  9997,2 52643  53.2167 256.6734 0001369  98.4552 261.6595 15.08831308102252,6917.907,95.438,540.719,538.825,0.0
52643.0,STARLINK-3963,PAYLOAD,2024-03-19 21:11:24,15.08869144,0.0001774,53.2172,250.4248,115.6052,244.5123,-0.00034504,-5.78e-05,0.0,0 STARLINK-3963,1 52643U 22052AX  24079.88291960 -.00005780  00000-0 -34504-3 0  9997,2 52643  53.2172 250.4248 0001774 115.6052 244.5123 15.08869144102848,6917.791,95.436,540.884,538.429,0.0
52643.0,STARLINK-3963,PAYLOAD,2024-03-20 11:29:54,15.08831244,0.000177,53.217,247.7447,127.9796,232.1356,7.3082e-05,8.75e-06,0.0,0 STARLINK-3963,1 52643U 22052AX  24080.47909824  .00000875  00000-0  73082-4 0  9992,2 52643  53.2170 247.7447 0001770 127.9796 232.1356 15.08831244102552,6917.907,95.438,540.997,538.548,0.0
52643.0,STARLINK-3963,PAYLOAD,2024-03-20 17:51:27,15.08799699,0.0001231,53.2173,246.5569,103.2784,256.8345,0.00038551,5.846e-05,0.0,0 STARLINK-3963,1 52643U 22052AX  24080.74407354  .00005846  00000-0  38551-3 0  9997,2 52643  53.2173 246.5569 0001231 103.2784 256.8345 15.08799699102977,6918.004,95.44,540.72,539.017,0.0
52643.0,STARLINK-3963,PAYLOAD,2024-03-21 11:20:42,15.08831584,0.0001114,53.2159,243.2895,79.0336,281.0781,-5.2203e-05,-1.118e-05,0.0,0 STARLINK-3963,1 52643U 22052AX  24081.47271133 -.00001118  00000-0 -52203-4 0  9993,2 52643  53.2159 243.2895 0001114  79.0336 281.0781 15.08831584103087,6917.906,95.438,540.542,539.0,0.0
52643.0,STARLINK-3963,PAYLOAD,2024-03-21 14:31:28,15.08834151,0.0001223,53.2158,242.6962,64.8313,295.2806,-2.1581e-05,-6.31e-06,0.0,0 STARLINK-3963,1 52643U 22052AX  24081.60519025 -.00000631  00000-0 -21581-4 0  9997,2 52643  53.2158 242.6962 0001223  64.8313 295.2806 15.08834151102720,6917.898,95.438,540.609,538.917,0.0
52643.0,STARLINK-3963,PAYLOAD,2024-03-21 17:42:14,15.08836531,0.0001277,53.2171,242.1041,86.4342,273.6796,2.6366e-05,1.32e-06,0.0,0 STARLINK-3963,1 52643U 22052AX  24081.73766688  .00000132  00000-0  26366-4 0  9990,2 52643  53.2171 242.1041 0001277  86.4342 273.6796 15.08836531103126,6917.891,95.438,540.639,538.873,0.0
52643.0,STARLINK-3963,PAYLOAD,2024-03-22 14:22:14,15.08836547,0.0001339,53.217,238.2383,94.6131,265.5014,0.00019448,2.808e-05,0.0,0 STARLINK-3963,1 52643U 22052AX  24082.59878435  .00002808  00000-0  19448-3 0  9993,2 52643  53.2170 238.2383 0001339  94.6131 265.5014 15.08836547102877,6917.891,95.438,540.682,538.83,0.0
52643.0,STARLINK-3963,PAYLOAD,2024-03-22 17:33:01,15.08837943,0.0001341,53.2169,237.6435,95.6675,264.447,0.00021021,3.059e-05,0.0,0 STARLINK-3963,1 52643U 22052AX  24082.73126471  .00003059  00000-0  21021-3 0  9994,2 52643  53.2169 237.6435 0001341  95.6675 264.4470 15.08837943102890,6917.887,95.438,540.679,538.824,0.0
52643.0,STARLINK-3963,PAYLOAD,2024-03-23 09:26:51,15.0886843,0.0001147,53.2169,234.6707,93.8142,266.2981,-0.00088154,-0.00014301,0.0,0 STARLINK-3963,1 52643U 22052AX  24083.39365118 -.00014301  00000-0 -88154-3 0  9994,2 52643  53.2169 234.6707 0001147  93.8142 266.2981 15.08868430103378,6917.793,95.436,540.452,538.865,0.0
52643.0,STARLINK-3963,PAYLOAD,2024-03-23 18:59:11,15.08839029,0.0001478,53.2174,232.8826,98.3461,261.7699,7.446e-05,8.97e-06,0.0,0 STARLINK-3963,1 52643U 22052AX  24083.79111061  .00000897  00000-0  74460-4 0  9993,2 52643  53.2174 232.8826 0001478  98.3461 261.7699 15.08839029103432,6917.883,95.438,540.771,538.726,0.0
52643.0,STARLINK-3963,PAYLOAD,2024-03-24 14:03:49,15.08847321,0.0001501,53.2167,229.3136,96.0436,264.0727,0.00010483,1.381e-05,0.0,0 STARLINK-3963,1 52643U 22052AX  24084.58598561  .00001381  00000-0  10483-3 0  9998,2 52643  53.2167 229.3136 0001501  96.0436 264.0727 15.08847321103176,6917.858,95.437,540.761,538.685,0.0
52643.0,STARLINK-3963,PAYLOAD,2024-03-24 20:25:21,15.08860216,0.0001371,53.2163,228.123,94.4567,265.6582,0.00037997,5.768e-05,0.0,0 STARLINK-3963,1 52643U 22052AX  24084.85094042  .00005768  00000-0  37997-3 0  9995,2 52643  53.2163 228.1230 0001371  94.4567 265.6582 15.08860216103596,6917.819,95.436,540.632,538.735,0.0
52643.0,STARLINK-3963,PAYLOAD,2024-03-25 09:08:26,15.08844836,0.0002478,53.2154,225.7445,91.9221,268.2055,0.00017798,2.546e-05,0.0,0 STARLINK-3963,1 52643U 22052AX  24085.38086789  .00002546  00000-0  17798-3 0  9991,2 52643  53.2154 225.7445 0002478  91.9221 268.2055 15.08844836103678,6917.866,95.437,541.445,538.016,0.0
52643.0,STARLINK-3963,PAYLOAD,2024-03-25 15:29:59,15.08840344,0.0001485,53.2141,224.5577,88.1246,271.9916,0.00010999,1.463e-05,0.0,0 STARLINK-3963,1 52643U 22052AX  24085.64582749  .00001463  00000-0  10999-3 0  9990,2 52643  53.2141 224.5577 0001485  88.1246 271.9916 15.08840344103339,6917.879,95.438,540.772,538.717,0.0
52643.0,STARLINK-3963,PAYLOAD,2024-03-26 12:10:00,15.08832784,0.0001447,53.2172,220.6908,89.5052,270.6106,-5.0346e-05,-1.089e-05,0.0,0 STARLINK-3963,1 52643U 22052AX  24086.50695448 -.00001089  00000-0 -50346-4 0  9994,2 52643  53.2172 220.6908 0001447  89.5052 270.6106 15.08832784103848,6917.902,95.438,540.768,538.766,0.0
52643.0,STARLINK-3963,PAYLOAD,2024-03-26 15:20:47,15.08822063,0.0001387,53.2175,220.0947,102.5441,257.5707,-0.00026988,-4.578e-05,0.0,0 STARLINK-3963,1 52643U 22052AX  24086.63943775 -.00004578  00000-0 -26988-3 0  9997,2 52643  53.2175 220.0947 0001387 102.5441 257.5707 15.08822063103489,6917.935,95.439,540.76,538.841,0.0
52643.0,STARLINK-3963,PAYLOAD,2024-03-26 18:31:33,15.08825431,0.0001461,53.2162,219.4992,106.5241,253.5912,-0.00011355,-2.094e-05,0.0,0 STARLINK-3963,1 52643U 22052AX  24086.77191823 -.00002094  00000-0 -11355-3 0  9994,2 52643  53.2162 219.4992 0001461 106.5241 253.5912 15.08825431103501,6917.925,95.438,540.801,538.779,0.0
52643.0,STARLINK-3963,PAYLOAD,2024-03-27 12:00:48,15.08844631,0.0001644,53.2168,216.2332,98.8479,261.2699,0.00034596,5.223e-05,0.0,0 STARLINK-3963,1 52643U 22052AX  24087.50055773  .00005223  00000-0  34596-3 0  9996,2 52643  53.2168 216.2332 0001644  98.8479 261.2699 15.08844631103993,6917.866,95.437,540.869,538.594,0.0
